CUBEBUG-2 (LO-74)       
1 39440U 13066AA  26175.16357250  .00003255  00000+0  30265-3 0  9999
2 39440  97.8904 124.1710 0057788   6.1369 354.0545 14.93813506678035
FUNCUBE-1 (AO-73)       
1 39444U 13066AE  26174.48649236  .00004811  00000+0  29949-3 0  9991
2 39444  97.8270 146.0634 0036320 179.4025 180.7253 15.09547873680611
UWE-3                   
1 39446U 13066AG  26174.83273869  .00003944  00000+0  33997-3 0  9991
2 39446  97.8705 130.9512 0046882 298.7267  60.9247 14.97073410678571
UNISAT-6                
1 40012U 14033C   26175.19283425  .00002093  00000+0  22825-3 0  9998
2 40012  97.7884 327.7817 0045899  46.7999 313.7038 14.88275685647204
DUCHIFAT-1              
1 40021U 14033M   26175.11803071  .00103515  00000+0  10097-2 0  9993
2 40021  98.0460 235.2586 0001858 108.0960 252.0500 15.65879628656832
QB50P1                  
1 40025U 14033R   26175.26774138  .00006977  00000+0  34307-3 0  9999
2 40025  98.0965 186.9101 0008520 189.6897 170.4172 15.18350991654109
LILACSAT-2              
1 40908U 15049K   26175.30212674  .00015960  00000+0  26996-3 0  9991
2 40908  97.4643 212.4145 0006111 212.6899 147.3975 15.51649967596853
FOX-1A (AO-85)          
1 40967U 15058D   26174.92582050  .00001640  00000+0  15604-3 0  9995
2 40967  64.7750 258.0417 0130850  53.9672 307.3482 14.90994015114570
CAS-2T & KS-1Q          
1 41847U 16066G   26175.16662429  .00001410  00000+0  20428-3 0  9994
2 41847  98.3820 250.8232 0342895 108.3774 255.5023 14.44714489505805
RADFXSAT (FOX-1B)       
1 43017U 17073E   26175.15325566  .00006039  00000+0  26536-3 0  9999
2 43017  97.4700  42.2254 0148774 304.9888  53.7450 15.12802211466445
DIWATA-2B               
1 43678U 18084H   26175.30540476  .00001720  00000+0  14163-3 0  9996
2 43678  98.1204  11.8236 0012945 147.7139 212.4879 15.00478828417286
ES'HAIL 2               
1 43700U 18090A   26175.17555332  .00000152  00000+0  00000+0 0  9990
2 43700   0.0162 323.1081 0002080 165.5076 232.7069  1.00273279 27743
FOX-1CLIFF (AO-95)      
1 43770U 18099N   26175.15597508  .00009674  00000+0  36928-3 0  9995
2 43770  97.4382 235.3767 0007299 330.8169  29.2661 15.26836482414286
ITASAT                  
1 43786U 18099AE  26174.87224046  .00005463  00000+0  26291-3 0  9998
2 43786  97.4030 226.2505 0011386 335.8240  24.2459 15.19126206413927
JY1SAT (JO-97)          
1 43803U 18099AX  26175.14190018  .00015119  00000+0  46379-3 0  9998
2 43803  97.4133 238.0008 0004834 230.5921 129.4894 15.33842498414697
UWE-4                   
1 43880U 18111E   26175.07461358  .00030603  00000+0  61683-3 0  9998
2 43880  97.5841 103.7842 0004486 307.8238  52.2604 15.46500339411840
TIANYAN 01              
1 44881U 19093C   26175.24717679  .00000713  00000+0  86392-4 0  9993
2 44881  97.7530 247.3073 0015062  66.0659 294.2133 14.86529999352466
RS-44 & BREEZE-KM R/B   
1 44909U 19096E   26175.19786970  .00000035  00000+0  87621-4 0  9994
2 44909  82.5224 335.0455 0218408 127.8374 234.2715 12.79748960303240
SALSAT                  
1 46495U 20068K   26175.27497564  .00006623  00000+0  23163-3 0  9993
2 46495  97.8854 178.7714 0007801 277.9982  82.0372 15.29885766316443
XW-3 (CAS-9)            
1 50466U 21131B   26175.27419363  .00000328  00000+0  11504-3 0  9991
2 50466  98.4979 267.6255 0005374  80.3481 279.8315 14.41362651236138
GREENCUBE (IO-117)      
1 53109U 22080E   26174.72102765 -.00000003  00000+0  00000+0 0  9992
2 53109  70.1445 295.9726 0008926 288.1418  71.8270  6.42583215 92482
UMKA 1 (RS40S)          
1 57172U 23091G   26175.26553454  .00005303  00000+0  24248-3 0  9995
2 57172  97.5050 233.9355 0014343  95.8193 264.4678 15.20887439165084
CUBESX-HSE 3 (RS42S)    
1 57178U 23091N   26175.23126634  .00011769  00000+0  39012-3 0  9992
2 57178  97.5092 240.9077 0011738  72.8879 287.3647 15.31367077165506
MONITOR-3 (RS58S)       
1 57180U 23091Q   26175.27135975  .00009778  00000+0  36018-3 0  9997
2 57180  97.5084 238.7696 0012909  78.9020 281.3670 15.27964376165373
MONITOR-4 (RS57S)       
1 57182U 23091S   26175.25002224  .00010071  00000+0  36991-3 0  9995
2 57182  97.5078 238.7196 0012896  79.2850 280.9840 15.28050072165377
MONITOR-2 (RS39S)       
1 57184U 23091U   26175.22982264  .00004583  00000+0  22211-3 0  9996
2 57184  97.5072 233.4672 0012769  89.8428 270.4270 15.18966612165029
SVYATOBOR 1 (RS60S)     
1 57187U 23091X   26175.26921992  .00008545  00000+0  32749-3 0  9993
2 57187  97.5090 239.1255 0010664  73.1213 287.1194 15.26718812165398
VIZARD-METEO (RS38S)    
1 57189U 23091Z   26175.24800432  .00015134  00000+0  43036-3 0  9991
2 57189  97.5092 244.8751 0007800  56.2323 303.9663 15.36219101165776
POLYTECH-UNIVERSE 3 (R*)
1 57191U 23091AB  26175.25608582  .00004491  00000+0  21610-3 0  9995
2 57191  97.5048 232.9975 0017073 104.5153 255.7977 15.19170539165029
UTMN 2 (RS27S)          
1 57203U 23091AP  26175.24501419  .00011616  00000+0  37560-3 0  9997
2 57203  97.5088 242.5640 0008869  62.5660 297.6483 15.32200560165628
